INTELSAT 902 (IS-902)   
1 26900U 01039A   26157.12361641 -.00000271  00000+0  00000+0 0  9994
2 26900   6.0906  71.9163 0004270   1.7232 175.2957  1.00270966 90584
INTELSAT 904 (IS-904)   
1 27380U 02007A   26156.25109469 -.00000215  00000+0  00000+0 0  9992
2 27380   6.8900  69.3272 0007230 359.5843 243.6787  1.00270624 51648
DIRECTV 5 (TEMPO 1)     
1 27426U 02023A   26156.89784505 -.00000045  00000+0  00000+0 0  9992
2 27426   4.8484  75.4503 0003479   7.2586  24.7378  1.00271802 88015
INTELSAT 905 (IS-905)   
1 27438U 02027A   26156.47267142  .00000105  00000+0  00000+0 0  9992
2 27438   6.7238  69.9406 0004197  12.6738 204.2394  1.00272550 51242
GALAXY 3C (G-3C)        
1 27445U 02030A   26156.90087839 -.00000140  00000+0  00000+0 0  9995
2 27445   3.7011  78.1277 0001916  30.0948  15.5711  1.00271858 46382
INTELSAT 906 (IS-906)   
1 27513U 02041A   26156.83150194  .00000025  00000+0  00000+0 0  9991
2 27513   5.7751  73.0591 0004699 357.6074 187.0703  1.00270686 86910
GALAXY 13 (HORIZONS-1)  
1 27954U 03044A   26157.10383913  .00000145  00000+0  00000+0 0  9995
2 27954   1.3916  83.9914 0002078 344.8405  73.0561  1.00272238 46465
INTELSAT 10-02          
1 28358U 04022A   26157.13337837  .00000002  00000+0  00000+0 0  9990
2 28358   0.0049 328.1828 0000303 180.6947 152.6898  1.00269853 80443
DIRECTV 8               
1 28659U 05019A   26157.13447568  .00000000  00000+0  00000+0 0  9992
2 28659   0.0170 346.9282 0003054  92.6638 104.3254  1.00269704 76966
GALAXY 28 (G-28)        
1 28702U 05022A   26157.05692913 -.00000188  00000+0  00000+0 0  9990
2 28702   3.2710  79.0650 0002751 355.0025 173.7972  1.00270901 51862
GALAXY 16 (G-16)        
1 29236U 06023A   26157.04268372 -.00000114  00000+0  00000+0 0  9991
2 29236   0.0234 203.7848 0002809 229.0338  98.0158  1.00272328 72860
DIRECTV 9S              
1 29494U 06043A   26157.11345918 -.00000101  00000+0  00000+0 0  9995
2 29494   2.3916  81.0353 0005141   4.7943 108.3684  1.00271855 51273
GALAXY 17 (G-17)        
1 31307U 07016B   26157.18642128 -.00000193  00000+0  00000+0 0  9993
2 31307   2.9437  80.0382 0004919  13.0395 143.6508  1.00272579 69696
INTELSAT 11 (IS-11)     
1 32253U 07044B   26157.09681911 -.00000177  00000+0  00000+0 0  9990
2 32253   3.5360  78.8034 0001734  77.3584 307.7476  0.99053781 68340
HORIZONS-2              
1 32388U 07063B   26157.18100584 -.00000241  00000+0  00000+0 0  9994
2 32388   2.5731  80.7602 0004125 353.3080 171.9247  1.00273010 67706
DIRECTV 11              
1 32729U 08013A   26156.96659963 -.00000113  00000+0  00000+0 0  9992
2 32729   0.0127 221.2849 0000398 171.6578 110.2496  1.00272158 45488
FM-5                    
1 35493U 09034A   26156.97390443 -.00000188  00000+0  00000+0 0  9995
2 35493   0.0138 295.0076 0000460  17.7523 206.0883  1.00272881 46536
INTELSAT 14 (IS-14)     
1 36097U 09064A   26157.12465642 -.00000260  00000+0  00000+0 0  9992
2 36097   0.0151 319.9709 0002867 129.8029 164.6637  1.00272092 60491
INTELSAT 15 (IS-15)     
1 36106U 09067A   26157.09350223 -.00000172  00000+0  00000+0 0  9992
2 36106   0.0139 325.8380 0002423 111.5868 295.9062  1.00272239 41117
DIRECTV 12              
1 36131U 09075A   26156.89931839 -.00000091  00000+0  00000+0 0  9994
2 36131   0.0381 147.1607 0000405 263.5052  64.7000  1.00272244 46443
INTELSAT 16 (IS-16)     
1 36397U 10006A   26157.18100584 -.00000232  00000+0  00000+0 0  9999
2 36397   0.0189  40.4735 0002222  46.0902 157.0206  1.00271516 59547
XM-5                    
1 37185U 10053A   26156.96818441 -.00000010  00000+0  00000+0 0  9994
2 37185   0.0635 273.1776 0002709 279.5350 295.0394  1.00271495 57375
INTELSAT 17 (IS-17)     
1 37238U 10065B   26157.14663845  .00000011  00000+0  00000+0 0  9993
2 37238   0.0054 307.5478 0002431 133.4235 292.3780  1.00272091 53134
INTELSAT 28 (IS-28)     
1 37392U 11016A   26157.05597580 -.00000212  00000+0  00000+0 0  9997
2 37392   1.7768  82.7598 0004001 352.3722 167.8136  1.00269622 53179
INTELSAT 18 (IS-18)     
1 37834U 11056A   26156.90600252  .00000066  00000+0  00000+0 0  9992
2 37834   0.0157 306.0852 0002230 141.5960 312.8136  1.00271900 53694
INTELSAT 22 (IS-22)     
1 38098U 12011A   26157.14767845 -.00000046  00000+0  00000+0 0  9995
2 38098   0.0154  50.2884 0001605  13.3842 316.1518  1.00273239  7076
INTELSAT 19 (IS-19)     
1 38356U 12030A   26156.92822806 -.00000044  00000+0  00000+0 0  9995
2 38356   0.0175 357.6343 0003178  84.4400 312.4464  1.00271551 50337
INTELSAT 20 (IS-20)     
1 38740U 12043A   26157.14715845 -.00000011  00000+0  00000+0 0  9999
2 38740   0.0130  90.0795 0001568  87.3230 198.6364  1.00270593 50639
