OBJECT_NAME,OBJECT_ID,EPOCH,MEAN_MOTION,ECCENTRICITY,INCLINATION,RA_OF_ASC_NODE,ARG_OF_PERICENTER,MEAN_ANOMALY,EPHEMERIS_TYPE,CLASSIFICATION_TYPE,NORAD_CAT_ID,ELEMENT_SET_NO,REV_AT_EPOCH,BSTAR,MEAN_MOTION_DOT,MEAN_MOTION_DDOT
INTELSAT 902 (IS-902),2001-039A,2026-06-06T02:58:00.457824,1.00270966,.00042702,6.0906,71.9163,1.7232,175.2957,0,U,26900,999,9058,0,-.271E-5,0
INTELSAT 904 (IS-904),2002-007A,2026-06-05T06:01:34.581216,1.00270624,.000723,6.8900,69.3272,359.5843,243.6787,0,U,27380,999,5164,0,-.215E-5,0
DIRECTV 5 (TEMPO 1),2002-023A,2026-06-05T21:32:53.812320,1.00271802,.00034797,4.8484,75.4503,7.2586,24.7378,0,U,27426,999,8801,0,-.45E-6,0
INTELSAT 905 (IS-905),2002-027A,2026-06-05T11:20:38.810688,1.00272550,.00041976,6.7238,69.9406,12.6738,204.2394,0,U,27438,999,5124,0,.105E-5,0
GALAXY 3C (G-3C),2002-030A,2026-06-05T21:37:15.892896,1.00271858,.00019161,3.7011,78.1277,30.0948,15.5711,0,U,27445,999,4638,0,-.14E-5,0
INTELSAT 906 (IS-906),2002-041A,2026-06-05T19:57:21.767616,1.00270686,.00046992,5.7751,73.0591,357.6074,187.0703,0,U,27513,999,8691,0,.25E-6,0
GALAXY 13 (HORIZONS-1),2003-044A,2026-06-06T02:29:31.700832,1.00272238,.00020782,1.3916,83.9914,344.8405,73.0561,0,U,27954,999,4646,0,.145E-5,0
INTELSAT 10-02,2004-022A,2026-06-06T03:12:03.891168,1.00269853,.00003034,0.0049,328.1828,180.6947,152.6898,0,U,28358,999,8044,0,.2E-7,0
DIRECTV 8,2005-019A,2026-06-06T03:13:38.698752,1.00269704,.00030542,0.0170,346.9282,92.6638,104.3254,0,U,28659,999,7696,0,0,0
GALAXY 28 (G-28),2005-022A,2026-06-06T01:21:58.676832,1.00270901,.00027511,3.2710,79.0650,355.0025,173.7972,0,U,28702,999,5186,0,-.188E-5,0
GALAXY 16 (G-16),2006-023A,2026-06-06T01:01:27.873408,1.00272328,.00028097,0.0234,203.7848,229.0338,98.0158,0,U,29236,999,7286,0,-.114E-5,0
DIRECTV 9S,2006-043A,2026-06-06T02:43:22.873152,1.00271855,.00051414,2.3916,81.0353,4.7943,108.3684,0,U,29494,999,5127,0,-.101E-5,0
GALAXY 17 (G-17),2007-016B,2026-06-06T04:28:26.798592,1.00272579,.00049192,2.9437,80.0382,13.0395,143.6508,0,U,31307,999,6969,0,-.193E-5,0
INTELSAT 11 (IS-11),2007-044B,2026-06-06T02:19:25.171104,0.99053781,.00017349,3.5360,78.8034,77.3584,307.7476,0,U,32253,999,6834,0,-.177E-5,0
HORIZONS-2,2007-063B,2026-06-06T04:20:38.904576,1.00273010,.00041257,2.5731,80.7602,353.3080,171.9247,0,U,32388,999,6770,0,-.241E-5,0
DIRECTV 11,2008-013A,2026-06-05T23:11:54.208032,1.00272158,.00003982,0.0127,221.2849,171.6578,110.2496,0,U,32729,999,4548,0,-.113E-5,0
FM-5,2009-034A,2026-06-05T23:22:25.342752,1.00272881,.00004602,0.0138,295.0076,17.7523,206.0883,0,U,35493,999,4653,0,-.188E-5,0
INTELSAT 14 (IS-14),2009-064A,2026-06-06T02:59:30.314688,1.00272092,.00028672,0.0151,319.9709,129.8029,164.6637,0,U,36097,999,6049,0,-.26E-5,0
INTELSAT 15 (IS-15),2009-067A,2026-06-06T02:14:38.592672,1.00272239,.00024234,0.0139,325.8380,111.5868,295.9062,0,U,36106,999,4111,0,-.172E-5,0
DIRECTV 12,2009-075A,2026-06-05T21:35:01.108896,1.00272244,.00004052,0.0381,147.1607,263.5052,64.7000,0,U,36131,999,4644,0,-.91E-6,0
INTELSAT 16 (IS-16),2010-006A,2026-06-06T04:20:38.904576,1.00271516,.00022225,0.0189,40.4735,46.0902,157.0206,0,U,36397,999,5954,0,-.232E-5,0
XM-5,2010-053A,2026-06-05T23:14:11.133024,1.00271495,.00027092,0.0635,273.1776,279.5350,295.0394,0,U,37185,999,5737,0,-.1E-6,0
INTELSAT 17 (IS-17),2010-065B,2026-06-06T03:31:09.562080,1.00272091,.00024313,0.0054,307.5478,133.4235,292.3780,0,U,37238,999,5313,0,.11E-6,0
INTELSAT 28 (IS-28),2011-016A,2026-06-06T01:20:36.309120,1.00269622,.00040019,1.7768,82.7598,352.3722,167.8136,0,U,37392,999,5317,0,-.212E-5,0
INTELSAT 18 (IS-18),2011-056A,2026-06-05T21:44:38.617728,1.00271900,.00022303,0.0157,306.0852,141.5960,312.8136,0,U,37834,999,5369,0,.66E-6,0
INTELSAT 22 (IS-22),2012-011A,2026-06-06T03:32:39.418080,1.00273239,.00016055,0.0154,50.2884,13.3842,316.1518,0,U,38098,999,707,0,-.46E-6,0
INTELSAT 19 (IS-19),2012-030A,2026-06-05T22:16:38.904384,1.00271551,.0003178,0.0175,357.6343,84.4400,312.4464,0,U,38356,999,5033,0,-.44E-6,0
INTELSAT 20 (IS-20),2012-043A,2026-06-06T03:31:54.490080,1.00270593,.00015688,0.0130,90.0795,87.3230,198.6364,0,U,38740,999,5063,0,-.11E-6,0
